STARLINK-4260           
1 52986U 22076A   22201.58334491  .00014108  00000+0  10473-3 0  9992
2 52986  53.2193 315.0800 0001498  43.8089 209.3557 15.73208493  1303
STARLINK-4259           
1 52987U 22076B   22201.58334491  .00019772  00000+0  14486-3 0  9993
2 52987  53.2192 315.0823 0001420  47.6626 204.2797 15.73217057  1308
STARLINK-4291           
1 52988U 22076C   22201.58334491  .00027703  00000+0  20128-3 0  9997
2 52988  53.2194 315.0777 0001547  48.4825 205.8379 15.73185177  1309
STARLINK-4293           
1 52989U 22076D   22201.58334491  .00016881  00000+0  12435-3 0  9995
2 52989  53.2190 315.0811 0001547  39.5705 212.9538 15.73219709  1308
STARLINK-4286           
1 52990U 22076E   22201.58334491 -.00025224  00000+0 -17553-3 0  9996
2 52990  53.2193 315.0791 0001485  34.1031 219.6448 15.73240069  1301
STARLINK-4285           
1 52991U 22076F   22201.58334491  .00139818  00000+0  98614-3 0  9997
2 52991  53.2190 315.0768 0001589  45.7088 209.1745 15.73152171  1308
STARLINK-4269           
1 52992U 22076G   22201.58334491 -.00001706  00000+0 -77279-5 0  9990
2 52992  53.2192 315.0745 0001576  54.3032 201.2055 15.73229963  1308
STARLINK-4264           
1 52993U 22076H   22201.58334491 -.00047094  00000+0 -33171-3 0  9992
2 52993  53.2193 315.0755 0001679  53.6682 202.4318 15.73289171  1300
STARLINK-4256           
1 52994U 22076J   22201.58334491 -.00056725  00000+0 -40089-3 0  9990
2 52994  53.2192 315.0729 0001417  42.3653 214.3435 15.73291443  1301
STARLINK-4296           
1 52995U 22076K   22201.58334491 -.00032920  00000+0 -23019-3 0  9996
2 52995  53.2199 315.0742 0000791   7.7887 250.0586 15.73288749  1301
STARLINK-4295           
1 52996U 22076L   22201.58334491 -.00080263  00000+0 -56978-3 0  9990
2 52996  53.2192 315.0715 0001671  49.6933 207.5214 15.73326950  1302
STARLINK-4301           
1 52997U 22076M   22201.58334491 -.00110133  00000+0 -78790-3 0  9997
2 52997  53.2197 315.0676 0001508  53.8594 206.4676 15.73278803  1306
STARLINK-4254           
1 52998U 22076N   22201.58334491 -.00044234  00000+0 -31121-3 0  9993
2 52998  53.2189 315.0683 0001514  41.0604 217.4370 15.73288422  1305
STARLINK-4217           
1 52999U 22076P   22201.58334491  .00022009  00000+0  16084-3 0  9999
2 52999  53.2193 315.0644 0001503  47.5435 213.9201 15.73197439  1300
STARLINK-4194           
1 53000U 22076Q   22201.58334491 -.00035591  00000+0 -24907-3 0  9998
2 53000  53.2189 315.0670 0001504  39.2378 219.7489 15.73308146  1304
STARLINK-4190           
1 53001U 22076R   22201.58334491  .00016290  00000+0  12031-3 0  9997
2 53001  53.2191 315.0626 0001445  48.5950 213.5469 15.73189249  1303
STARLINK-4121           
1 53002U 22076S   22201.58334491 -.00029433  00000+0 -20543-3 0  9990
2 53002  53.2192 315.0669 0001472  44.1817 215.5451 15.73266863  1307
STARLINK-4255           
1 53003U 22076T   22201.58334491 -.00090532  00000+0 -64483-3 0  9990
2 53003  53.2191 315.0601 0001414  37.2386 226.0657 15.73298940  1309
STARLINK-4253           
1 53004U 22076U   22201.58334491 -.00059483  00000+0 -42078-3 0  9997
2 53004  53.2191 315.0642 0001506  40.3086 220.5774 15.73288746  1301
STARLINK-4288           
1 53005U 22076V   22201.58334491 -.00005030  00000+0 -31409-4 0  9994
2 53005  53.2192 315.0592 0001456  44.0844 219.8195 15.73221613  1302
STARLINK-4290           
1 53006U 22076W   22201.58334491 -.00055082  00000+0 -38915-3 0  9995
2 53006  53.2194 315.0619 0001530  42.3356 220.3677 15.73286401  1305
STARLINK-4215           
1 53007U 22076X   22201.58334491 -.00082366  00000+0 -58407-3 0  9999
2 53007  53.2195 315.0569 0001351  27.4575 238.0433 15.73363804  1308
STARLINK-4275           
1 53008U 22076Y   22201.58334491 -.00037944  00000+0 -26638-3 0  9993
2 53008  53.2193 315.0582 0001430  46.1621 218.3206 15.73266964  1308
STARLINK-4277           
1 53009U 22076Z   22201.58334491 -.00067579  00000+0 -47986-3 0  9990
2 53009  53.2192 315.0525 0001541  49.6896 217.7762 15.73252488  1306
STARLINK-4263           
1 53010U 22076AA  22201.58334491 -.00054708  00000+0 -38662-3 0  9993
2 53010  53.2190 315.0563 0001394  39.8951 225.1960 15.73277654  1302
STARLINK-4265           
1 53011U 22076AB  22201.58334491 -.00088717  00000+0 -63003-3 0  9998
2 53011  53.2193 315.0515 0001664  48.4093 219.4752 15.73358738  1304
STARLINK-4271           
1 53012U 22076AC  22201.58334491 -.00022333  00000+0 -15504-3 0  9994
2 53012  53.2190 315.0542 0001344  47.2883 219.0110 15.73212560  1307
STARLINK-4177           
1 53013U 22076AD  22201.58334491 -.00053461  00000+0 -37919-3 0  9995
2 53013  53.2189 315.0467 0001842  50.8944 218.9921 15.73181373  1308
STARLINK-4183           
1 53014U 22076AE  22201.58334491 -.00045195  00000+0 -31830-3 0  9997
2 53014  53.2195 315.0542 0001512  44.6564 222.2329 15.73274155  1304
STARLINK-4262           
1 53015U 22076AF  22201.58334491 -.00043687  00000+0 -30773-3 0  9997
2 53015  53.2192 315.0456 0001599  41.5008 229.5880 15.73254700  1306
STARLINK-4283           
1 53016U 22076AG  22201.58334491 -.00098679  00000+0 -70411-3 0  9992
2 53016  53.2187 315.0482 0001493  50.1206 218.5948 15.73292876  1308
STARLINK-4281           
1 53017U 22076AH  22201.58334491  .00032126  00000+0  23272-3 0  9999
2 53017  53.2189 315.0433 0001521  43.4806 228.1902 15.73171519  1307
STARLINK-4279           
1 53018U 22076AJ  22201.58334491 -.00097913  00000+0 -69853-3 0  9992
2 53018  53.2192 315.0483 0001653  47.4399 221.8740 15.73292811  1303
STARLINK-4282           
1 53019U 22076AK  22201.58334491 -.00026870  00000+0 -18748-3 0  9994
2 53019  53.2190 315.0411 0001827  46.6661 226.2390 15.73217700  1303
STARLINK-4287           
1 53020U 22076AL  22201.58334491 -.00100268  00000+0 -71587-3 0  9990
2 53020  53.2189 315.0453 0001527  45.3151 225.1558 15.73285671  1302
STARLINK-4203           
1 53021U 22076AM  22201.58334491 -.00071545  00000+0 -50776-3 0  9993
2 53021  53.2191 315.0387 0001224 334.3747 299.6131 15.73288406  1300
STARLINK-4216           
1 53022U 22076AN  22201.58334491 -.00118066  00000+0 -84487-3 0  9990
2 53022  53.2190 315.0418 0001544  42.7536 229.4642 15.73303251  1300
STARLINK-4284           
1 53023U 22076AP  22201.58334491 -.00096391  00000+0 -68829-3 0  9999
2 53023  53.2191 315.0367 0001372  41.0562 234.2270 15.73266503  1304
STARLINK-4289           
1 53024U 22076AQ  22201.58334491  .00029347  00000+0  21298-3 0  9994
2 53024  53.2189 315.0371 0001482  58.5661 216.0708 15.73178251  1308
STARLINK-4218           
1 53025U 22076AR  22201.58334491 -.00072160  00000+0 -51360-3 0  9991
2 53025  53.2189 315.0332 0001364  53.9531 222.4696 15.73224451  1301
STARLINK-4119           
1 53026U 22076AS  22201.58334491 -.00081784  00000+0 -58166-3 0  9995
2 53026  53.2188 315.0390 0001595  42.7089 230.6862 15.73291423  1304
STARLINK-4158           
1 53027U 22076AT  22201.58334491  .00030193  00000+0  21905-3 0  9993
2 53027  53.2191 315.0310 0001344  59.1559 219.0624 15.73170169  1307
STARLINK-4161           
1 53028U 22076AU  22201.58334491 -.00074724  00000+0 -53100-3 0  9996
2 53028  53.2188 315.0346 0001138  46.5720 229.1539 15.73276177  1307
STARLINK-4143           
1 53029U 22076AV  22201.58334491 -.00064202  00000+0 -45502-3 0  9994
2 53029  53.2192 315.0305 0001078   1.7989 276.8979 15.73277370  1304
STARLINK-4160           
1 53030U 22076AW  22201.58334491 -.00021124  00000+0 -14658-3 0  9990
2 53030  53.2188 315.0316 0001471  61.7764 215.2660 15.73181927  1303
STARLINK-4137           
1 53031U 22076AX  22201.58334491 -.00026699  00000+0 -18650-3 0  9999
2 53031  53.2191 315.0261 0001340  52.5090 228.1333 15.73189531  1301
STARLINK-4115           
1 53032U 22076AY  22201.58334491  .00014016  00000+0  10421-3 0  9996
2 53032  53.2182 315.0297 0001737  45.2282 232.3995 15.73177993  1303
STARLINK-4167           
1 53033U 22076AZ  22201.58334491  .00022309  00000+0  16311-3 0  9995
2 53033  53.2193 315.0281 0001586  61.2766 218.7044 15.73176139  1300
STARLINK-4151           
1 53034U 22076BA  22201.58334491  .00033826  00000+0  24489-3 0  9997
2 53034  53.2194 315.0288 0001623  40.7410 238.6653 15.73158521  1301
STARLINK-4157           
1 53035U 22076BB  22201.58334491 -.00022626  00000+0 -15728-3 0  9992
2 53035  53.2192 315.0256 0001649  43.7916 237.3994 15.73190624  1301
STARLINK-4155           
1 53036U 22076BC  22201.58334491 -.00047597  00000+0 -33669-3 0  9991
2 53036  53.2188 315.0223 0001326  51.6327 230.1704 15.73195919  1309
STARLINK-4153           
1 53037U 22076BD  22201.58334491 -.00095600  00000+0 -68360-3 0  9996
2 53037  53.2191 315.0222 0001132  46.6982 235.6880 15.73231005  1301
STARLINK-4156           
1 53038U 22076BE  22201.58334491 -.00021745  00000+0 -15100-3 0  9990
2 53038  53.2187 315.0197 0001581  48.7210 234.2979 15.73185654  1305
FALCON 9 DEB            
1 53039U 22076BF  22201.57786720  .01349466  11676-4  88126-3 0  9992
2 53039  53.2197 313.3396 0047541  84.4277 276.2180 16.13765829  2107
FALCON 9 DEB            
1 53040U 22076BG  22201.57371310  .01291835  11680-4  84953-3 0  9994
2 53040  53.2143 313.3038 0044238  85.8508 274.7584 16.14033568  2105
FALCON 9 DEB            
1 53041U 22076BH  22201.56414996  .01236519  11715-4  75371-3 0  9993
2 53041  53.2187 313.2297 0041855  79.3106 281.2641 16.15273171  2108
FALCON 9 DEB            
1 53042U 22076BJ  22201.55958863  .01496757  11770-4  78838-3 0  9993
2 53042  53.2203 313.2024 0039974  78.6807 281.8719 16.17318862  2106
STARLINK-4362           
1 53043U 22077A   22201.58334491 -.00050676  00000+0 -41933-3 0  9995
2 53043  97.6561  20.0198 0001407  81.1449  18.5621 15.70294696  1306
STARLINK-4349           
1 53044U 22077B   22201.58334491  .00100456  00000+0  82422-3 0  9994
2 53044  97.6560  20.0135 0001166  71.0666  29.2503 15.70159476  1302
